{
  "type": "FeatureCollection",
  "features": [
    {
      "type": "Feature",
      "properties": {
        "norad_id": 66571,
        "name": "STARLINK-35836",
        "group": "last-30-days",
        "lat": 18.635388277114853,
        "lon": -44.63571762179916,
        "alt_km": 380.81186637912924,
        "timestamp": "2025-12-06T16:45:41.516229+00:00",
        "meta_object_name": "STARLINK-35836",
        "meta_object_id": "2025-268Q",
        "meta_epoch": "2025-12-06T06:00:02.000160",
        "meta_mean_motion": 15.6356043,
        "meta_eccentricity": 0.00013778,
        "meta_inclination": 42.9997,
        "meta_ra_of_asc_node": 159.2516,
        "meta_arg_of_pericenter": 271.456,
        "meta_mean_anomaly": 235.2879,
        "meta_ephemeris_type": 0,
        "meta_classification_type": "U",
        "meta_norad_cat_id": 66571,
        "meta_element_set_no": 999,
        "meta_rev_at_epoch": 362,
        "meta_bstar": -0.02412155,
        "meta_mean_motion_dot": -0.02020182,
        "meta_mean_motion_ddot": 0,
        "tle_line1": "1 66571U 25268Q   25340.25002315 -.02020182  00000+0 -24122-1 0  9998",
        "tle_line2": "2 66571  42.9997 159.2516 0001377 271.4560 235.2879 15.63560430  3629"
      },
      "geometry": {
        "type": "Point",
        "coordinates": [
          -44.63571762179916,
          18.635388277114853
        ]
      }
    },
    {
      "type": "Feature",
      "properties": {
        "norad_id": 66572,
        "name": "STARLINK-35870",
        "group": "last-30-days",
        "lat": 17.410250838808427,
        "lon": -43.08761905140041,
        "alt_km": 380.9384507767172,
        "timestamp": "2025-12-06T16:45:41.516239+00:00",
        "meta_object_name": "STARLINK-35870",
        "meta_object_id": "2025-268R",
        "meta_epoch": "2025-12-06T06:00:02.000160",
        "meta_mean_motion": 15.635582,
        "meta_eccentricity": 0.00013822,
        "meta_inclination": 42.9996,
        "meta_ra_of_asc_node": 159.248,
        "meta_arg_of_pericenter": 269.6969,
        "meta_mean_anomaly": 238.9671,
        "meta_ephemeris_type": 0,
        "meta_classification_type": "U",
        "meta_norad_cat_id": 66572,
        "meta_element_set_no": 999,
        "meta_rev_at_epoch": 362,
        "meta_bstar": -0.024113602,
        "meta_mean_motion_dot": -0.02019445,
        "meta_mean_motion_ddot": 0,
        "tle_line1": "1 66572U 25268R   25340.25002315 -.02019445  00000+0 -24114-1 0  9990",
        "tle_line2": "2 66572  42.9996 159.2480 0001382 269.6969 238.9671 15.63558200  3629"
      },
      "geometry": {
        "type": "Point",
        "coordinates": [
          -43.08761905140041,
          17.410250838808427
        ]
      }
    },
    {
      "type": "Feature",
      "properties": {
        "norad_id": 66573,
        "name": "STARLINK-35650",
        "group": "last-30-days",
        "lat": 16.1747033259676,
        "lon": -41.56429616230629,
        "alt_km": 381.15171286661825,
        "timestamp": "2025-12-06T16:45:41.516249+00:00",
        "meta_object_name": "STARLINK-35650",
        "meta_object_id": "2025-268S",
        "meta_epoch": "2025-12-06T06:00:02.000160",
        "meta_mean_motion": 15.63558488,
        "meta_eccentricity": 0.00015108,
        "meta_inclination": 42.9997,
        "meta_ra_of_asc_node": 159.242,
        "meta_arg_of_pericenter": 270.3747,
        "meta_mean_anomaly": 240.2046,
        "meta_ephemeris_type": 0,
        "meta_classification_type": "U",
        "meta_norad_cat_id": 66573,
        "meta_element_set_no": 999,
        "meta_rev_at_epoch": 362,
        "meta_bstar": -0.02411112,
        "meta_mean_motion_dot": -0.02019383,
        "meta_mean_motion_ddot": 0,
        "tle_line1": "1 66573U 25268S   25340.25002315 -.02019383  00000+0 -24111-1 0  9999",
        "tle_line2": "2 66573  42.9997 159.2420 0001510 270.3747 240.2046 15.63558488  3621"
      },
      "geometry": {
        "type": "Point",
        "coordinates": [
          -41.56429616230629,
          16.1747033259676
        ]
      }
    },
    {
      "type": "Feature",
      "properties": {
        "norad_id": 66574,
        "name": "STARLINK-35812",
        "group": "last-30-days",
        "lat": 14.927218083848889,
        "lon": -40.05776178800543,
        "alt_km": 381.3256070584157,
        "timestamp": "2025-12-06T16:45:41.516261+00:00",
        "meta_object_name": "STARLINK-35812",
        "meta_object_id": "2025-268T",
        "meta_epoch": "2025-12-06T06:00:02.000160",
        "meta_mean_motion": 15.6356096,
        "meta_eccentricity": 0.00015371,
        "meta_inclination": 42.9997,
        "meta_ra_of_asc_node": 159.237,
        "meta_arg_of_pericenter": 270.8183,
        "meta_mean_anomaly": 241.6757,
        "meta_ephemeris_type": 0,
        "meta_classification_type": "U",
        "meta_norad_cat_id": 66574,
        "meta_element_set_no": 999,
        "meta_rev_at_epoch": 362,
        "meta_bstar": -0.024139323,
        "meta_mean_motion_dot": -0.02021647,
        "meta_mean_motion_ddot": 0,
        "tle_line1": "1 66574U 25268T   25340.25002315 -.02021647  00000+0 -24139-1 0  9996",
        "tle_line2": "2 66574  42.9997 159.2370 0001537 270.8183 241.6757 15.63560960  3626"
      },
      "geometry": {
        "type": "Point",
        "coordinates": [
          -40.05776178800543,
          14.927218083848889
        ]
      }
    },
    {
      "type": "Feature",
      "properties": {
        "norad_id": 66575,
        "name": "STARLINK-35810",
        "group": "last-30-days",
        "lat": 13.669475638047063,
        "lon": -38.56818757065318,
        "alt_km": 381.4261185832074,
        "timestamp": "2025-12-06T16:45:41.516288+00:00",
        "meta_object_name": "STARLINK-35810",
        "meta_object_id": "2025-268U",
        "meta_epoch": "2025-12-06T06:00:02.000160",
        "meta_mean_motion": 15.63559607,
        "meta_eccentricity": 0.00015075,
        "meta_inclination": 42.9994,
        "meta_ra_of_asc_node": 159.2322,
        "meta_arg_of_pericenter": 269.1945,
        "meta_mean_anomaly": 245.2162,
        "meta_ephemeris_type": 0,
        "meta_classification_type": "U",
        "meta_norad_cat_id": 66575,
        "meta_element_set_no": 999,
        "meta_rev_at_epoch": 362,
        "meta_bstar": -0.024101828,
        "meta_mean_motion_dot": -0.02018778,
        "meta_mean_motion_ddot": 0,
        "tle_line1": "1 66575U 25268U   25340.25002315 -.02018778  00000+0 -24102-1 0  9998",
        "tle_line2": "2 66575  42.9994 159.2322 0001507 269.1945 245.2162 15.63559607  3621"
      },
      "geometry": {
        "type": "Point",
        "coordinates": [
          -38.56818757065318,
          13.669475638047063
        ]
      }
    },
    {
      "type": "Feature",
      "properties": {
        "norad_id": 66576,
        "name": "STARLINK-35814",
        "group": "last-30-days",
        "lat": 12.401500015498762,
        "lon": -37.09274645287875,
        "alt_km": 381.5495173262598,
        "timestamp": "2025-12-06T16:45:41.516302+00:00",
        "meta_object_name": "STARLINK-35814",
        "meta_object_id": "2025-268V",
        "meta_epoch": "2025-12-06T06:00:02.000160",
        "meta_mean_motion": 15.63559749,
        "meta_eccentricity": 0.00013976,
        "meta_inclination": 42.9996,
        "meta_ra_of_asc_node": 159.2273,
        "meta_arg_of_pericenter": 268.9114,
        "meta_mean_anomaly": 247.4188,
        "meta_ephemeris_type": 0,
        "meta_classification_type": "U",
        "meta_norad_cat_id": 66576,
        "meta_element_set_no": 999,
        "meta_rev_at_epoch": 362,
        "meta_bstar": -0.024124448,
        "meta_mean_motion_dot": -0.02020361,
        "meta_mean_motion_ddot": 0,
        "tle_line1": "1 66576U 25268V   25340.25002315 -.02020361  00000+0 -24124-1 0  9994",
        "tle_line2": "2 66576  42.9996 159.2273 0001397 268.9114 247.4188 15.63559749  3620"
      },
      "geometry": {
        "type": "Point",
        "coordinates": [
          -37.09274645287875,
          12.401500015498762
        ]
      }
    },
    {
      "type": "Feature",
      "properties": {
        "norad_id": 66577,
        "name": "STARLINK-35815",
        "group": "last-30-days",
        "lat": 11.12821440765375,
        "lon": -35.63445778682972,
        "alt_km": 381.73090154527563,
        "timestamp": "2025-12-06T16:45:41.516316+00:00",
        "meta_object_name": "STARLINK-35815",
        "meta_object_id": "2025-268W",
        "meta_epoch": "2025-12-06T06:00:02.000160",
        "meta_mean_motion": 15.63562005,
        "meta_eccentricity": 0.00014794,
        "meta_inclination": 42.9995,
        "meta_ra_of_asc_node": 159.2228,
        "meta_arg_of_pericenter": 269.0704,
        "meta_mean_anomaly": 249.1759,
        "meta_ephemeris_type": 0,
        "meta_classification_type": "U",
        "meta_norad_cat_id": 66577,
        "meta_element_set_no": 999,
        "meta_rev_at_epoch": 362,
        "meta_bstar": -0.024173951,
        "meta_mean_motion_dot": -0.02024215,
        "meta_mean_motion_ddot": 0,
        "tle_line1": "1 66577U 25268W   25340.25002315 -.02024215  00000+0 -24174-1 0  9992",
        "tle_line2": "2 66577  42.9995 159.2228 0001479 269.0704 249.1759 15.63562005  3620"
      },
      "geometry": {
        "type": "Point",
        "coordinates": [
          -35.63445778682972,
          11.12821440765375
        ]
      }
    }
  ]
}